SAUDISAT 1C (SO-50)     
1 27607U 02058C   26154.26409835  .00001126  00000+0  14986-3 0  9992
2 27607  64.5505 172.0623 0075519 265.0164  94.2317 14.83015002262393
SAUDISAT 2              
1 28371U 04025F   26155.25274288  .00000362  00000+0  91969-4 0  9997
2 28371  98.5505 154.9006 0024248 339.3307  20.6907 14.56676091163861
SAUDISAT 3              
1 31118U 07012B   26154.45421211  .00000343  00000+0  63658-4 0  9993
2 31118  98.1450 104.8464 0013249 271.5931  88.3758 14.71417052 25724
PISAT                   
1 41784U 16059B   26154.99760220  .00001004  00000+0  17864-3 0  9991
2 41784  97.8177 156.0175 0027582 246.5558 113.2748 14.68959119517809
FLYING LAPTOP           
1 42831U 17042G   26155.85351589  .00004312  00000+0  34046-3 0  9994
2 42831  97.4642 311.8658 0018797 162.0497 198.1395 15.01062666484606
SALSAT                  
1 46495U 20068K   26154.99736177  .00008555  00000+0  30076-3 0  9992
2 46495  97.8850 157.2614 0009364 359.9507   0.1729 15.29597840313346
