OBJECT_NAME,OBJECT_ID,EPOCH,MEAN_MOTION,ECCENTRICITY,INCLINATION,RA_OF_ASC_NODE,ARG_OF_PERICENTER,MEAN_ANOMALY,EPHEMERIS_TYPE,CLASSIFICATION_TYPE,NORAD_CAT_ID,ELEMENT_SET_NO,REV_AT_EPOCH,BSTAR,MEAN_MOTION_DOT,MEAN_MOTION_DDOT
SAUDISAT 1C (SO-50),2002-058C,2026-06-03T06:20:18.097440,14.83015002,.00755199,64.5505,172.0623,265.0164,94.2317,0,U,27607,999,26239,.14986347E-3,.1126E-4,0
SAUDISAT 2,2004-025F,2026-06-04T06:03:56.984832,14.56676091,.00242489,98.5505,154.9006,339.3307,20.6907,0,U,28371,999,16386,.9196949E-4,.362E-5,0
SAUDISAT 3,2007-012B,2026-06-03T10:54:03.926304,14.71417052,.00132493,98.1450,104.8464,271.5931,88.3758,0,U,31118,999,2572,.63657789E-4,.343E-5,0
PISAT,2016-059B,2026-06-03T23:56:32.830080,14.68959119,.00275826,97.8177,156.0175,246.5558,113.2748,0,U,41784,999,51780,.17863658E-3,.1004E-4,0
FLYING LAPTOP,2017-042G,2026-06-04T20:29:03.772896,15.01062666,.0018797,97.4642,311.8658,162.0497,198.1395,0,U,42831,999,48460,.34046E-3,.4312E-4,0
SALSAT,2020-068K,2026-06-03T23:56:12.056928,15.29597840,.00093644,97.8850,157.2614,359.9507,0.1729,0,U,46495,999,31334,.30076162E-3,.8555E-4,0
